{
  "name": "SATGUS",
  "line1": "1 62713U 25009DJ  26162.73116573  .00005666  00000+0  44653-3 0  9992",
  "line2": "2 62713  97.6935 244.1609 0008903 137.3197 222.8721 15.01132263 76749",
  "fetched_at": "2026-06-12T00:52:56.209824+00:00"
}